{"type":"FeatureCollection","features":[{"type":"Feature","properties":{"name":"HTNGO02","styleUrl":"#poly-E65100-1200-77-nodesc","fill-opacity":0.30196078431372547,"fill":"#e65100","stroke-opacity":1,"stroke":"#e65100","stroke-width":1.2},"geometry":{"type":"Polygon","coordinates":[[[-91.49303753767441,15.286375611658716],[-91.48317420093022,15.340128392262852],[-91.47979851348836,15.340808807207207],[-91.4789545916279,15.340264475251722],[-91.4807479255814,15.33899436735559],[-91.48090616093023,15.338132508426073],[-91.47805792465115,15.33781498145204],[-91.47816341488371,15.334594350715422],[-91.47884910139534,15.334050018759937],[-91.47589537488372,15.33223557890832],[-91.46824733302326,15.3323263009009],[-91.46561007720929,15.334821155696874],[-91.46629576372092,15.335320126656068],[-91.46513537116279,15.33776962045575],[-91.46276184093023,15.337497454478008],[-91.46218164465115,15.342577886062534],[-91.46571556744186,15.3422603590885],[-91.46619027348837,15.342850052040276],[-91.46497713581395,15.343938715951245],[-91.46455517488371,15.34543562882883],[-91.46508262604651,15.346796458717542],[-91.46460791999999,15.348746981558028],[-91.46365850790697,15.348973786539482],[-91.46255086046511,15.350697504398516],[-91.4653463516279,15.355324326020138],[-91.46682321488372,15.355959379968203],[-91.46782537209302,15.356821238897721],[-91.46935498046511,15.356503711923688],[-91.47046262790697,15.357274848860625],[-91.4701461572093,15.35986042564918],[-91.46756164651163,15.361629504504505],[-91.4678781172093,15.363761471330154],[-91.46671772465116,15.364124359300478],[-91.46550458697673,15.363988276311606],[-91.46450242976744,15.362944973396926],[-91.46302556651162,15.362990334393217],[-91.46286733116278,15.365031579226285],[-91.4620761544186,15.366437770111288],[-91.45943889860465,15.367027463063064],[-91.45833125116279,15.366483131107579],[-91.45796203534883,15.36326250037096],[-91.45601046604651,15.36344394435612],[-91.45690713302325,15.364759413248542],[-91.45548301488371,15.366891380074192],[-91.45326772,15.3677986],[-91.45194909209302,15.366347048118707],[-91.45184360186046,15.365213023211448],[-91.44862614976743,15.362763529411765],[-91.44862614976743,15.360450118600955],[-91.44678007069767,15.359769703656598],[-91.44419556,15.362309919448862],[-91.44176928465116,15.36217383645999],[-91.43944849953488,15.360631562586116],[-91.43707496930232,15.360087230630631],[-91.43570359627907,15.359588259671437],[-91.43607281209302,15.356004740964494],[-91.44060889209302,15.353872774138845],[-91.44219124558138,15.355097521038687],[-91.4459361488372,15.353691330153683],[-91.44825693395349,15.351514002331744],[-91.44957556186046,15.350652143402225],[-91.44867889488371,15.347930483624802],[-91.44683281581395,15.349200591520933],[-91.44530320744185,15.348248010598834],[-91.44261320651162,15.347295429676736],[-91.43934300930232,15.346932541706412],[-91.43565085116279,15.347295429676736],[-91.4351234,15.343757271966084],[-91.43602006697674,15.339538699311076],[-91.44097810790697,15.338495396396397],[-91.44530320744185,15.34112633418124],[-91.44788771813953,15.333505686804452],[-91.44983928744186,15.330466500052994],[-91.44983928744186,15.326202566401696],[-91.44804595348836,15.3223922427133],[-91.44435379534883,15.315860259247483],[-91.44867889488371,15.313047877477477],[-91.45147438604651,15.311324159618442],[-91.45152713116279,15.308058167885532],[-91.45548301488371,15.306062284048755],[-91.45168536651163,15.304111761208267],[-91.45353144558139,15.300845769475357],[-91.4598081144186,15.300800408479066],[-91.46212889953487,15.297080806783253],[-91.47172851069767,15.29104779427663],[-91.47320537395349,15.288235412506623],[-91.47309988372092,15.286829221621621],[-91.47220321674418,15.285785918706942],[-91.47262517767442,15.284651893799682],[-91.47573713953489,15.284470449814519],[-91.48333243627907,15.2822024],[-91.48644439813953,15.285105503762585],[-91.49303753767441,15.286375611658716]]]}},{"type":"Feature","properties":{"name":"HTNGO01","description":"HUEHUETENANGO C","styleUrl":"#poly-FFEA00-1200-77","fill-opacity":0.30196078431372547,"fill":"#ffea00","stroke-opacity":1,"stroke":"#ffea00","stroke-width":1.2},"geometry":{"type":"Polygon","coordinates":[[[-91.48317420093022,15.340128392262852],[-91.49303753767441,15.286375611658716],[-91.49852302976744,15.287418914573395],[-91.50242616837208,15.28782716354001],[-91.50432499255814,15.2878725245363],[-91.50759518976744,15.288371495495495],[-91.5114455832558,15.289913769369369],[-91.51308068186046,15.292816873131954],[-91.51360813302325,15.291909653206147],[-91.51587617302326,15.292453985161632],[-91.5160344083721,15.295039561950185],[-91.5177749972093,15.299258134605193],[-91.51861891906977,15.301889072390036],[-91.52136166511627,15.302796292315845],[-91.52436813674419,15.301798350397457],[-91.52668892186047,15.300664325490196],[-91.52980088372092,15.301707628404875],[-91.53254362976745,15.304792176152622],[-91.53407323813953,15.307014864970853],[-91.5384510827907,15.310643744674085],[-91.5404553972093,15.311505603603603],[-91.54367284930233,15.313047877477477],[-91.54530794790698,15.315315927291998],[-91.54831441953488,15.318128309062002],[-91.5510571655814,15.321076773820879],[-91.55348344093024,15.321258217806042],[-91.55981285488372,15.324751014520402],[-91.56345226790697,15.32656545437202],[-91.57247168279069,15.326882981346051],[-91.5764803116279,15.330058251086381],[-91.58112188186047,15.330466500052994],[-91.58143835255814,15.328289172231054],[-91.58196580372093,15.324887097509274],[-91.58797874697675,15.321348939798622],[-91.59072149302325,15.322482964705882],[-91.5923565916279,15.324751014520402],[-91.59346423906976,15.328561338208797],[-91.59277855255814,15.331010832008479],[-91.59414992558139,15.333823213778484],[-91.59483561209302,15.336227346581875],[-91.5968926716279,15.33668095654478],[-91.60026835906977,15.335819097615262],[-91.6034330660465,15.333278881822999],[-91.60559561581395,15.33119227599364],[-91.60955149953489,15.327971645257021],[-91.6127689516279,15.32656545437202],[-91.6165666,15.327880923264441],[-91.61551169767442,15.330874749019607],[-91.61271620651162,15.333777852782195],[-91.60902404837209,15.335819097615262],[-91.6072307144186,15.337996425437202],[-91.60670326325581,15.340400558240594],[-91.6082328716279,15.341942832114468],[-91.61028993116278,15.340219114255431],[-91.61271620651162,15.339538699311076],[-91.61382385395349,15.342305720084791],[-91.61208326511628,15.344936657869635],[-91.60818012651163,15.34666037572867],[-91.60237816372093,15.347340790673027],[-91.60058482976744,15.345753155802862],[-91.5968926716279,15.345843877795442],[-91.59414992558139,15.343711910969793],[-91.59040502232558,15.34543562882883],[-91.58238776465116,15.342623247058823],[-91.57906482232558,15.339130450344463],[-91.57895933209302,15.333913935771065],[-91.57305187906977,15.331781968945416],[-91.56935972093024,15.329786085108639],[-91.55881069767442,15.329196392156863],[-91.55021324372093,15.325249985479598],[-91.54435853581396,15.321258217806042],[-91.54114108372093,15.31772006009539],[-91.53555010139534,15.314726234340222],[-91.53270186511628,15.318355114043454],[-91.53101402139535,15.322845852676206],[-91.52705813767442,15.32656545437202],[-91.52225833209302,15.32656545437202],[-91.51519048651163,15.329876807101218],[-91.50506342418605,15.330693305034446],[-91.50849185674419,15.334821155696874],[-91.5139773488372,15.340445919236885],[-91.51814421302325,15.343757271966084],[-91.51571793767441,15.348429454583997],[-91.5112346027907,15.346932541706412],[-91.50680401302326,15.340718085214627],[-91.50274263906977,15.336953122522523],[-91.49857577488372,15.337316010492845],[-91.4983647944186,15.340854168203498],[-91.50042185395348,15.344256242925278],[-91.49878675534883,15.348701620561739],[-91.49715165674418,15.349245952517224],[-91.49625498976744,15.346252126762057],[-91.4976263627907,15.343757271966084],[-91.49551655813953,15.342940774032856],[-91.49419793023256,15.34325830100689],[-91.49187714511628,15.342441803073662],[-91.4902947916279,15.340264475251722],[-91.48834322232558,15.338586118388978],[-91.48749930046512,15.339493338314785],[-91.48575871162791,15.339311894329624],[-91.48317420093022,15.340128392262852]]]}}]}