{"type":"FeatureCollection","features":[{"type":"Feature","properties":{"name":"MZTENANGO01","description":"MAZATENANGO","styleUrl":"#poly-006064-1200-77","fill-opacity":0.30196078431372547,"fill":"#006064","stroke-opacity":1,"stroke":"#006064","stroke-width":1.2},"geometry":{"type":"Polygon","coordinates":[[[-91.49690837442537,14.540939613574661],[-91.4962972107361,14.538646927262443],[-91.49538046520222,14.534460282692308],[-91.48720615085831,14.506150590837104],[-91.48315719141694,14.488706238461539],[-91.47437171338376,14.470464429977376],[-91.47689276360198,14.462091140837105],[-91.48544905525168,14.464184463122171],[-91.48965080561537,14.470265065950226],[-91.49018557384346,14.480831359389141],[-91.49354697413442,14.481728497511313],[-91.49782511995927,14.487410372285067],[-91.49423453328484,14.502462356334842],[-91.49782511995927,14.51591942816742],[-91.50309640677916,14.51033723540724],[-91.5063050161478,14.493490975113122],[-91.50179768393949,14.484718957918552],[-91.50279082493454,14.478638355090498],[-91.50745094806517,14.472757116289593],[-91.51990340823393,14.48123008744344],[-91.51898666270003,14.489802740610859],[-91.51279863034624,14.496381753506787],[-91.51203467573465,14.50266172036199],[-91.51379177134129,14.513028649773755],[-91.51822270808844,14.518610842533937],[-91.52349399490835,14.518212114479638],[-91.52532748597615,14.519507980656108],[-91.52525109051498,14.522797487104071],[-91.52181329476288,14.532267278393665],[-91.53197389109688,14.534659646719456],[-91.53984262359616,14.537151697058823],[-91.54748216971196,14.540939613574661],[-91.55573287951702,14.543232299886878],[-91.5597818389584,14.54243484377828],[-91.56283765740471,14.540142157466063],[-91.56589347585103,14.537650107126696],[-91.56818533968577,14.534161236651583],[-91.57551930395694,14.531669186312216],[-91.57949186793715,14.536254558936651],[-91.58071419531568,14.54562466821267],[-91.5823185,14.548316082579186],[-91.58101977716031,14.553200501244344],[-91.577963958714,14.55310081923077],[-91.57506093119,14.551107178959276],[-91.56864371245273,14.552901455203619],[-91.55787195242944,14.55310081923077],[-91.5503088017748,14.552103999095023],[-91.54152332374163,14.550210040837104],[-91.53464773223742,14.548216400565611],[-91.5315919137911,14.54263420780543],[-91.53128633194646,14.540241839479638],[-91.52823051350015,14.539544065384614],[-91.52517469505382,14.541737069683258],[-91.5219660856852,14.55230336312217],[-91.51638921702066,14.559281104072397],[-91.51952143092814,14.562072200452489],[-91.51936864000582,14.567554711199094],[-91.5190630581612,14.57602768235294],[-91.51982701277277,14.579715916855204],[-91.52418155405877,14.575529272285067],[-91.52937644541751,14.573635314027149],[-91.542669255659,14.577821958597285],[-91.54114134643585,14.584899381561085],[-91.5386966916788,14.58968411821267],[-91.53556447777132,14.591179348416288],[-91.53380738216468,14.602044687895926],[-91.53128633194646,14.6029418260181],[-91.5254038814373,14.603938646153846],[-91.5234175994472,14.603041508031673],[-91.52188969022403,14.606131650452488],[-91.5143265395694,14.60423769219457],[-91.51195828027349,14.606530378506786],[-91.51264583942391,14.612411617307691],[-91.5121110711958,14.6174954],[-91.50737455260402,14.615701123755656],[-91.50561745699738,14.61470430361991],[-91.50508268876928,14.613408437443438],[-91.50607582976433,14.611115751131221],[-91.50813850721559,14.610318295022624],[-91.50844408906023,14.609321474886878],[-91.50951362551643,14.606231332466063],[-91.51081234835613,14.603838964140271],[-91.50974281189991,14.601945005882353],[-91.50905525274949,14.60124723178733],[-91.50966641643876,14.599054227488686],[-91.5139445622636,14.59955263755656],[-91.51753514893802,14.60144659581448],[-91.51806991716613,14.599253591515836],[-91.51554886694792,14.59845613540724],[-91.51608363517603,14.591079666402715],[-91.51715317163224,14.588587616063348],[-91.5181463126273,14.58499906357466],[-91.51829910354961,14.581709557126697],[-91.5163128215595,14.578619414705882],[-91.51570165787024,14.5730372219457],[-91.51425014410823,14.56446456877828],[-91.51226386211813,14.559281104072397],[-91.50974281189991,14.559380786085972],[-91.50752734352633,14.560876016289592],[-91.5034019886238,14.561075380316742],[-91.50531187515276,14.557088099773756],[-91.50592303884201,14.554297003393664],[-91.50118652025022,14.549811312782804],[-91.50156849755601,14.546721170361991],[-91.49690837442537,14.540939613574661]]]}},{"type":"Feature","properties":{"name":"MZTENANGO02","styleUrl":"#poly-FFEA00-1200-77-nodesc","fill-opacity":0.30196078431372547,"fill":"#ffea00","stroke-opacity":1,"stroke":"#ffea00","stroke-width":1.2},"geometry":{"type":"Polygon","coordinates":[[[-91.49690837442537,14.540939613574661],[-91.49232464675589,14.540640567533936],[-91.49010917838231,14.546521806334841],[-91.48590742801862,14.54692053438914],[-91.48422672787315,14.544528166063348],[-91.48369195964504,14.540640567533936],[-91.4817820731161,14.539245019343891],[-91.47903183651441,14.538048835180994],[-91.47864985920862,14.53515805678733],[-91.47689276360198,14.536154876923076],[-91.4741425270003,14.538846291289593],[-91.47162147678208,14.541836751696833],[-91.47093391763165,14.546820852375566],[-91.47200345408787,14.550708450904978],[-91.46833647195228,14.562570610520362],[-91.46680856272913,14.570844217647059],[-91.47253822231598,14.576426410407239],[-91.47070473124818,14.587690477941177],[-91.46390553520513,14.588886662104072],[-91.46161367137039,14.586593975791855],[-91.4574119210067,14.585696837669683],[-91.4545088934827,14.582806059276017],[-91.45366854340995,14.579516552828053],[-91.45053632950247,14.574333088122172],[-91.45038353858016,14.570844217647059],[-91.45374493887111,14.569448669457014],[-91.45397412525459,14.560676652262442],[-91.45405052071574,14.554496367420814],[-91.45443249802153,14.552203681108598],[-91.45160586595868,14.550907814932126],[-91.44832086112889,14.550608768891403],[-91.44495946083794,14.551904635067872],[-91.44060491955193,14.551107178959276],[-91.42799966846087,14.55160558902715],[-91.4206657041897,14.54841576459276],[-91.41126906246727,14.55011035882353],[-91.40095567521094,14.555592869570136],[-91.39423287462904,14.541438023642534],[-91.39117705618271,14.53535742081448],[-91.38277355545534,14.527980951809955],[-91.37673831402385,14.524492081334841],[-91.37253656366018,14.524990491402715],[-91.37360610011638,14.529675546040723],[-91.3713906317428,14.532865370475113],[-91.36856399967995,14.534659646719456],[-91.36329271286006,14.541836751696833],[-91.36184119909805,14.545325622171946],[-91.36268154917079,14.549213220701358],[-91.35679909866163,14.55160558902715],[-91.34465222033751,14.548017036538461],[-91.33456801946465,14.546322442307693],[-91.3244838185918,14.548515446606334],[-91.32158079106779,14.54542530418552],[-91.3197473,14.53964374739819],[-91.32578254143148,14.535855830882353],[-91.34342989295898,14.537351061085973],[-91.3526737437591,14.541637387669683],[-91.35886177611289,14.533363780542986],[-91.36367469016585,14.524691445361992],[-91.36780004506838,14.515620382126697],[-91.37551598664533,14.51462356199095],[-91.38980193788187,14.522996851131222],[-91.39614276115799,14.528479361877828],[-91.40813684855979,14.531370140271493],[-91.41088708516148,14.52489080938914],[-91.4068381257201,14.488008464366516],[-91.40584498472505,14.473853618438914],[-91.4134081353797,14.463387007013575],[-91.41569999921444,14.455312763914026],[-91.41883221312192,14.4412576],[-91.42547861824265,14.442154738122172],[-91.42746490023276,14.44853438699095],[-91.42219361341286,14.461493048755656],[-91.41569999921444,14.47355457239819],[-91.41333173991853,14.48043263133484],[-91.41440127637475,14.488805920475112],[-91.41791546758802,14.506050908823529],[-91.42288117256328,14.526685085633483],[-91.42723571384929,14.538048835180994],[-91.43579200549898,14.539942793438914],[-91.44152166508583,14.536952333031675],[-91.44740411559499,14.537650107126696],[-91.44961958396858,14.53834788122172],[-91.45023074765784,14.534460282692308],[-91.4464873700611,14.526086993552036],[-91.4475569065173,14.522398759049773],[-91.451758656881,14.518610842533937],[-91.45641878001165,14.522498441063348],[-91.45848145746291,14.52658540361991],[-91.46153727590922,14.527283177714931],[-91.46566263081175,14.526685085633483],[-91.46917682202502,14.534460282692308],[-91.47269101323829,14.531968232352941],[-91.47406613153913,14.525488901470588],[-91.4814000958103,14.522996851131222],[-91.48491428702357,14.524691445361992],[-91.48919243284841,14.513228013800905],[-91.49324139228979,14.527083813687783],[-91.4952276742799,14.533961872624435],[-91.49690837442537,14.540939613574661]]]}}]}